CCSDS_OMM_VERS = 2.0
CREATION_DATE  = 
ORIGINATOR     = 

OBJECT_NAME    = STARLINK-36188
OBJECT_ID      = 2025-299W
CENTER_NAME    = EARTH
REF_FRAME      = TEME
TIME_SYSTEM    = UTC
MEAN_ELEMENT_THEORY = SGP/SGP4

EPOCH          = 2025-12-25T22:00:01.999584
MEAN_MOTION    = 15.81389853
ECCENTRICITY   = .00015852
INCLINATION    = 42.9968
RA_OF_ASC_NODE = 235.8279
ARG_OF_PERICENTER = 270.0752
MEAN_ANOMALY   = 180.4211

EPHEMERIS_TYPE = 0
CLASSIFICATION_TYPE = U
NORAD_CAT_ID   = 67122
ELEMENT_SET_NO = 999
REV_AT_EPOCH   = 292
BSTAR          = -.10093525E-1
MEAN_MOTION_DOT = -.1814097E-1
MEAN_MOTION_DDOT = 0

CCSDS_OMM_VERS = 2.0
CREATION_DATE  = 
ORIGINATOR     = 

OBJECT_NAME    = STARLINK-36151
OBJECT_ID      = 2025-299X
CENTER_NAME    = EARTH
REF_FRAME      = TEME
TIME_SYSTEM    = UTC
MEAN_ELEMENT_THEORY = SGP/SGP4

EPOCH          = 2025-12-25T22:00:01.999584
MEAN_MOTION    = 15.81367287
ECCENTRICITY   = .00015098
INCLINATION    = 42.9970
RA_OF_ASC_NODE = 235.8365
ARG_OF_PERICENTER = 273.0499
MEAN_ANOMALY   = 174.1416

EPHEMERIS_TYPE = 0
CLASSIFICATION_TYPE = U
NORAD_CAT_ID   = 67123
ELEMENT_SET_NO = 999
REV_AT_EPOCH   = 292
BSTAR          = -.1008317E-1
MEAN_MOTION_DOT = -.1810709E-1
MEAN_MOTION_DDOT = 0

CCSDS_OMM_VERS = 2.0
CREATION_DATE  = 
ORIGINATOR     = 

OBJECT_NAME    = STARLINK-36195
OBJECT_ID      = 2025-299Y
CENTER_NAME    = EARTH
REF_FRAME      = TEME
TIME_SYSTEM    = UTC
MEAN_ELEMENT_THEORY = SGP/SGP4

EPOCH          = 2025-12-25T22:00:01.999584
MEAN_MOTION    = 15.81394386
ECCENTRICITY   = .00015782
INCLINATION    = 42.9971
RA_OF_ASC_NODE = 235.8240
ARG_OF_PERICENTER = 271.7012
MEAN_ANOMALY   = 180.4806

EPHEMERIS_TYPE = 0
CLASSIFICATION_TYPE = U
NORAD_CAT_ID   = 67124
ELEMENT_SET_NO = 999
REV_AT_EPOCH   = 292
BSTAR          = -.10067063E-1
MEAN_MOTION_DOT = -.1810257E-1
MEAN_MOTION_DDOT = 0

CCSDS_OMM_VERS = 2.0
CREATION_DATE  = 
ORIGINATOR     = 

OBJECT_NAME    = STARLINK-36219
OBJECT_ID      = 2025-299Z
CENTER_NAME    = EARTH
REF_FRAME      = TEME
TIME_SYSTEM    = UTC
MEAN_ELEMENT_THEORY = SGP/SGP4

EPOCH          = 2025-12-25T22:00:01.999584
MEAN_MOTION    = 15.81409511
ECCENTRICITY   = .00014889
INCLINATION    = 42.9966
RA_OF_ASC_NODE = 235.8193
ARG_OF_PERICENTER = 274.3527
MEAN_ANOMALY   = 179.4264

EPHEMERIS_TYPE = 0
CLASSIFICATION_TYPE = U
NORAD_CAT_ID   = 67125
ELEMENT_SET_NO = 999
REV_AT_EPOCH   = 292
BSTAR          = -.10090386E-1
MEAN_MOTION_DOT = -.1814986E-1
MEAN_MOTION_DDOT = 0

CCSDS_OMM_VERS = 2.0
CREATION_DATE  = 
ORIGINATOR     = 

OBJECT_NAME    = STARLINK-36223
OBJECT_ID      = 2025-299AA
CENTER_NAME    = EARTH
REF_FRAME      = TEME
TIME_SYSTEM    = UTC
MEAN_ELEMENT_THEORY = SGP/SGP4

EPOCH          = 2025-12-25T22:00:01.999584
MEAN_MOTION    = 15.81408676
ECCENTRICITY   = .00015675
INCLINATION    = 42.9968
RA_OF_ASC_NODE = 235.8148
ARG_OF_PERICENTER = 271.2014
MEAN_ANOMALY   = 184.4380

EPHEMERIS_TYPE = 0
CLASSIFICATION_TYPE = U
NORAD_CAT_ID   = 67126
ELEMENT_SET_NO = 999
REV_AT_EPOCH   = 292
BSTAR          = -.10066439E-1
MEAN_MOTION_DOT = -.1811217E-1
MEAN_MOTION_DDOT = 0

CCSDS_OMM_VERS = 2.0
CREATION_DATE  = 
ORIGINATOR     = 

OBJECT_NAME    = STARLINK-36164
OBJECT_ID      = 2025-299AB
CENTER_NAME    = EARTH
REF_FRAME      = TEME
TIME_SYSTEM    = UTC
MEAN_ELEMENT_THEORY = SGP/SGP4

EPOCH          = 2025-12-25T22:00:01.999584
MEAN_MOTION    = 15.81413263
ECCENTRICITY   = .0001528
INCLINATION    = 42.9967
RA_OF_ASC_NODE = 235.8105
ARG_OF_PERICENTER = 271.1106
MEAN_ANOMALY   = 186.2434

EPHEMERIS_TYPE = 0
CLASSIFICATION_TYPE = U
NORAD_CAT_ID   = 67127
ELEMENT_SET_NO = 999
REV_AT_EPOCH   = 292
BSTAR          = -.10046191E-1
MEAN_MOTION_DOT = -.1808328E-1
MEAN_MOTION_DDOT = 0

CCSDS_OMM_VERS = 2.0
CREATION_DATE  = 
ORIGINATOR     = 

OBJECT_NAME    = STARLINK-35685
OBJECT_ID      = 2025-299AC
CENTER_NAME    = EARTH
REF_FRAME      = TEME
TIME_SYSTEM    = UTC
MEAN_ELEMENT_THEORY = SGP/SGP4

EPOCH          = 2025-12-25T22:00:01.999584
MEAN_MOTION    = 15.81385938
ECCENTRICITY   = .00015036
INCLINATION    = 42.9965
RA_OF_ASC_NODE = 235.7985
ARG_OF_PERICENTER = 275.6949
MEAN_ANOMALY   = 186.2795

EPHEMERIS_TYPE = 0
CLASSIFICATION_TYPE = U
NORAD_CAT_ID   = 67128
ELEMENT_SET_NO = 999
REV_AT_EPOCH   = 292
BSTAR          = -.10056784E-1
MEAN_MOTION_DOT = -.1807939E-1
MEAN_MOTION_DDOT = 0

CCSDS_OMM_VERS = 2.0
CREATION_DATE  = 
ORIGINATOR     = 

OBJECT_NAME    = STARLINK-36214
OBJECT_ID      = 2025-299AD
CENTER_NAME    = EARTH
REF_FRAME      = TEME
TIME_SYSTEM    = UTC
MEAN_ELEMENT_THEORY = SGP/SGP4

EPOCH          = 2025-12-25T22:00:01.999584
MEAN_MOTION    = 15.81413106
ECCENTRICITY   = .00015208
INCLINATION    = 42.9966
RA_OF_ASC_NODE = 235.8054
ARG_OF_PERICENTER = 273.3060
MEAN_ANOMALY   = 186.0020

EPHEMERIS_TYPE = 0
CLASSIFICATION_TYPE = U
NORAD_CAT_ID   = 67129
ELEMENT_SET_NO = 999
REV_AT_EPOCH   = 292
BSTAR          = -.10062026E-1
MEAN_MOTION_DOT = -.181081E-1
MEAN_MOTION_DDOT = 0

CCSDS_OMM_VERS = 2.0
CREATION_DATE  = 
ORIGINATOR     = 

OBJECT_NAME    = STARLINK-36194
OBJECT_ID      = 2025-299AE
CENTER_NAME    = EARTH
REF_FRAME      = TEME
TIME_SYSTEM    = UTC
MEAN_ELEMENT_THEORY = SGP/SGP4

EPOCH          = 2025-12-25T22:00:01.999584
MEAN_MOTION    = 15.81296345
ECCENTRICITY   = .00013186
INCLINATION    = 42.9965
RA_OF_ASC_NODE = 235.7889
ARG_OF_PERICENTER = 274.0482
MEAN_ANOMALY   = 192.4460

EPHEMERIS_TYPE = 0
CLASSIFICATION_TYPE = U
NORAD_CAT_ID   = 67130
ELEMENT_SET_NO = 999
REV_AT_EPOCH   = 292
BSTAR          = -.10113062E-1
MEAN_MOTION_DOT = -.1809945E-1
MEAN_MOTION_DDOT = 0

CCSDS_OMM_VERS = 2.0
CREATION_DATE  = 
ORIGINATOR     = 

OBJECT_NAME    = ZIYUAN 3-04 (ZY 3-04)
OBJECT_ID      = 2025-300A
CENTER_NAME    = EARTH
REF_FRAME      = TEME
TIME_SYSTEM    = UTC
MEAN_ELEMENT_THEORY = SGP/SGP4

EPOCH          = 2025-12-21T18:22:34.187808
MEAN_MOTION    = 15.21179479
ECCENTRICITY   = .00027623
INCLINATION    = 97.4922
RA_OF_ASC_NODE = 69.8294
ARG_OF_PERICENTER = 167.6924
MEAN_ANOMALY   = 192.4380

EPHEMERIS_TYPE = 0
CLASSIFICATION_TYPE = U
NORAD_CAT_ID   = 67131
ELEMENT_SET_NO = 999
REV_AT_EPOCH   = 86
BSTAR          = .65769783E-4
MEAN_MOTION_DOT = .1396E-4
MEAN_MOTION_DDOT = 0

CCSDS_OMM_VERS = 2.0
CREATION_DATE  = 
ORIGINATOR     = 

OBJECT_NAME    = CZ-4B R/B
OBJECT_ID      = 2025-300B
CENTER_NAME    = EARTH
REF_FRAME      = TEME
TIME_SYSTEM    = UTC
MEAN_ELEMENT_THEORY = SGP/SGP4

EPOCH          = 2025-12-18T16:13:04.609056
MEAN_MOTION    = 15.63831828
ECCENTRICITY   = .01741973
INCLINATION    = 97.5563
RA_OF_ASC_NODE = 66.9660
ARG_OF_PERICENTER = 9.3582
MEAN_ANOMALY   = 351.0851

EPHEMERIS_TYPE = 0
CLASSIFICATION_TYPE = U
NORAD_CAT_ID   = 67132
ELEMENT_SET_NO = 999
REV_AT_EPOCH   = 40
BSTAR          = .19566238E-3
MEAN_MOTION_DOT = .40543E-3
MEAN_MOTION_DDOT = .2652968E-5

CCSDS_OMM_VERS = 2.0
CREATION_DATE  = 
ORIGINATOR     = 

OBJECT_NAME    = KUIPER-00144
OBJECT_ID      = 2025-301A
CENTER_NAME    = EARTH
REF_FRAME      = TEME
TIME_SYSTEM    = UTC
MEAN_ELEMENT_THEORY = SGP/SGP4

EPOCH          = 2025-12-25T22:00:01.999584
MEAN_MOTION    = 15.35427011
ECCENTRICITY   = .00062387
INCLINATION    = 51.8705
RA_OF_ASC_NODE = 61.5912
ARG_OF_PERICENTER = 121.3318
MEAN_ANOMALY   = 228.9898

EPHEMERIS_TYPE = 0
CLASSIFICATION_TYPE = U
NORAD_CAT_ID   = 67133
ELEMENT_SET_NO = 999
REV_AT_EPOCH   = 179
BSTAR          = .25090013E-3
MEAN_MOTION_DOT = .8397E-4
MEAN_MOTION_DDOT = 0

