STARLINK-36188          
1 67122U 25299W   25359.91668981 -.01814097  00000+0 -10094-1 0  9993
2 67122  42.9968 235.8279 0001585 270.0752 180.4211 15.81389853  2927
STARLINK-36151          
1 67123U 25299X   25359.91668981 -.01810709  00000+0 -10083-1 0  9998
2 67123  42.9970 235.8365 0001509 273.0499 174.1416 15.81367287  2928
STARLINK-36195          
1 67124U 25299Y   25359.91668981 -.01810257  00000+0 -10067-1 0  9999
2 67124  42.9971 235.8240 0001578 271.7012 180.4806 15.81394386  2927
STARLINK-36219          
1 67125U 25299Z   25359.91668981 -.01814986  00000+0 -10090-1 0  9999
2 67125  42.9966 235.8193 0001488 274.3527 179.4264 15.81409511  2922
STARLINK-36223          
1 67126U 25299AA  25359.91668981 -.01811217  00000+0 -10066-1 0  9997
2 67126  42.9968 235.8148 0001567 271.2014 184.4380 15.81408676  2926
STARLINK-36164          
1 67127U 25299AB  25359.91668981 -.01808328  00000+0 -10046-1 0  9995
2 67127  42.9967 235.8105 0001528 271.1106 186.2434 15.81413263  2925
STARLINK-35685          
1 67128U 25299AC  25359.91668981 -.01807939  00000+0 -10057-1 0  9995
2 67128  42.9965 235.7985 0001503 275.6949 186.2795 15.81385938  2923
STARLINK-36214          
1 67129U 25299AD  25359.91668981 -.01810810  00000+0 -10062-1 0  9994
2 67129  42.9966 235.8054 0001520 273.3060 186.0020 15.81413106  2929
STARLINK-36194          
1 67130U 25299AE  25359.91668981 -.01809945  00000+0 -10113-1 0  9990
2 67130  42.9965 235.7889 0001318 274.0482 192.4460 15.81296345  2929
ZIYUAN 3-04 (ZY 3-04)   
1 67131U 25300A   25355.76567347  .00001396  00000+0  65770-4 0  9990
2 67131  97.4922  69.8294 0002762 167.6924 192.4380 15.21179479   860
CZ-4B R/B               
1 67132U 25300B   25352.67574779  .00040543  26530-5  19566-3 0  9995
2 67132  97.5563  66.9660 0174197   9.3582 351.0851 15.63831828   407
KUIPER-00144            
1 67133U 25301A   25359.91668981  .00008397  00000+0  25090-3 0  9998
2 67133  51.8705  61.5912 0006238 121.3318 228.9898 15.35427011  1792
